1 47445U 21006AJ  21110.72259078  .00001464  00000-0  86854-4 0  9998
2 47445  97.4899 172.9140 0010945 305.6060  54.4151 15.12857165 13325
1 47445U 21006AJ  21110.72259078  .00001464  00000-0  86854-4 0  9998
2 47445  97.4899 172.9140 0010945 305.6060  54.4151 15.12857165 13325
